OBJECT_NAME,OBJECT_ID,EPOCH,MEAN_MOTION,ECCENTRICITY,INCLINATION,RA_OF_ASC_NODE,ARG_OF_PERICENTER,MEAN_ANOMALY,EPHEMERIS_TYPE,CLASSIFICATION_TYPE,NORAD_CAT_ID,ELEMENT_SET_NO,REV_AT_EPOCH,BSTAR,MEAN_MOTION_DOT,MEAN_MOTION_DDOT
SIRION PATHFINDER-2,2018-099B,2026-06-26T02:25:06.615264,15.14622553,.00070929,97.4252,225.9461,266.8901,93.1519,0,U,43759,999,41397,.29089928E-3,.5312E-4,0
CORVUS BC4,2018-099K,2026-06-26T02:52:00.401376,15.12561796,.00072978,97.4065,219.8380,341.6016,18.4950,0,U,43767,999,41375,.28394693E-3,.4891E-4,0
M2 PATHFINDER,2020-037E,2026-06-26T02:10:57.093312,15.04706244,.0012561,97.8135,8.4223,120.6544,239.5922,0,U,45727,999,32683,.21595948E-3,.2981E-4,0
NETSAT-4,2020-068U,2026-06-26T04:45:10.700928,15.44149820,.00031685,97.8601,186.1637,289.3785,70.7119,0,U,46504,999,31716,.42746823E-3,.19512E-3,0
NETSAT-3,2020-068V,2026-06-26T06:37:30.619776,15.42978668,.00031311,97.8652,184.4532,318.1999,41.9007,0,U,46505,999,31708,.46732913E-3,.20517E-3,0
NETSAT-1,2020-068W,2026-06-26T06:19:14.733408,15.34840028,.00039027,97.8742,178.6632,2.5836,357.5425,0,U,46506,999,31669,.40195216E-3,.13502E-3,0
NETSAT-2,2020-068X,2026-06-26T06:57:47.733120,15.46374580,.00020213,97.8614,186.1915,352.1043,8.0173,0,U,46507,999,31714,.48622331E-3,.23969E-3,0
GREENCUBE (IO-117),2022-080E,2026-06-25T17:51:47.627136,6.42583224,.00089751,70.1444,295.2691,287.7502,72.2178,0,U,53109,999,9261,0,-.3E-7,0
SITRO-AIS 5 (KATYS),2023-091L,2026-06-26T05:29:38.647392,15.29653864,.00124724,97.5063,241.2146,75.3367,284.9255,0,U,57176,999,16572,.46910044E-3,.13441E-3,0
SITRO-AIS 6 (CHIRKIN),2023-091AC,2026-06-26T05:29:29.225472,15.26099042,.00128952,97.5071,240.2855,78.5844,281.6842,0,U,57192,999,16566,.43444409E-3,.11162E-3,0
SITRO-AIS 8 (ANOKHIN),2023-091AD,2026-06-26T05:31:15.921696,15.32368131,.00114012,97.5059,242.8414,71.8810,288.3672,0,U,57193,999,16583,.51387868E-3,.16028E-3,0
SITRO-AIS 7 (FARTUSHNIY),2023-091AE,2026-06-26T05:36:41.782752,15.25783527,.0012763,97.5069,240.1109,79.5637,280.7039,0,U,57194,999,16565,.43735609E-3,.1113E-3,0
SITRO-AIS 10 (BURDAEV),2023-091AK,2026-06-26T05:21:33.647040,15.38939421,.00067557,97.5084,247.9827,52.3295,307.8562,0,U,57199,999,16615,.57394663E-3,.22086E-3,0
SITRO-AIS 9 (SHCHUKIN),2023-091AM,2026-06-26T04:30:06.261408,15.38437236,.00070652,97.5083,247.6690,52.5123,307.6763,0,U,57201,999,16613,.55767993E-3,.21108E-3,0
SITRO-AIS 12 (SMIRENNIY),2023-091AQ,2026-06-26T05:47:46.371552,15.38733004,.00065447,97.5095,248.1970,47.1411,313.0383,0,U,57204,999,16616,.55740097E-3,.213E-3,0
SITRO-AIS 11 (SHEFFER),2023-091AU,2026-06-26T06:03:28.190304,15.39162921,.00064224,97.5093,248.4606,46.7784,313.3996,0,U,57208,999,16618,.53813015E-3,.2085E-3,0
SITRO-AIS 25,2024-039R,2026-06-26T06:53:09.537216,14.93554539,.01426113,95.3909,241.3457,296.5845,62.0825,0,U,59066,999,12608,.18440073E-3,.2337E-4,0
SITRO-AIS 26,2024-039S,2026-06-26T06:56:55.697856,14.93348797,.01429678,95.3909,241.2432,297.1741,61.4970,0,U,59067,999,12607,.17922502E-3,.226E-4,0
SITRO-AIS 27,2024-039T,2026-06-26T06:10:24.678912,14.93770260,.01419159,95.3912,241.4968,295.8502,62.8145,0,U,59068,999,12609,.25420449E-3,.3249E-4,0
SITRO-AIS 28,2024-039U,2026-06-26T07:14:05.374176,14.93802490,.01419102,95.3910,241.5751,295.5214,63.1393,0,U,59071,999,12610,.21276044E-3,.2716E-4,0
GRBBETA,2024-128C,2026-06-26T05:54:13.462560,15.06688945,.00394825,61.9878,184.4815,136.5630,223.8585,0,U,60237,999,10763,.23858982E-3,.3403E-4,0
OOV-CUBE (TUBSAT-30),2024-128F,2026-06-26T05:42:23.198400,15.02803677,.00435048,61.9924,194.0128,135.7884,224.6697,0,U,60240,999,10747,.1370361E-3,.1664E-4,0
ROBUSTA-3A (MEDITERRANEE),2024-128J,2026-06-26T03:08:07.846368,15.11752310,.00401609,61.9844,176.6146,130.0014,230.4618,0,U,60243,999,10777,.33022342E-3,.5543E-4,0
LASARSAT,2024-247Q,2026-06-26T06:38:52.925280,15.46877465,.00072009,44.9729,211.1163,26.2306,333.8948,0,U,62391,999,8472,.62539585E-3,.31954E-3,0
CROCUBE,2024-247T,2026-06-24T09:26:02.551776,15.48681185,.00072263,44.9701,218.9251,18.8099,341.3058,0,U,62394,999,8446,.56516968E-3,.30725E-3,0
FORESAIL-1 PRIME,2025-276DS,2026-06-26T00:33:06.118272,15.18776013,.00039434,97.4201,250.1321,85.4112,274.7572,0,U,66778,999,3174,.27023523E-3,.5552E-4,0
KNACKSAT-2,1998-067XZ,2026-06-25T10:05:21.537888,15.60671397,.0008709,51.6277,253.0425,252.4154,107.5888,0,U,67683,999,2156,.64307E-3,.54321E-3,0
