SIRION PATHFINDER-2     
1 43759U 18099B   26177.10077101  .00005312  00000+0  29090-3 0  9998
2 43759  97.4252 225.9461 0007092 266.8901  93.1519 15.14622553413974
CORVUS BC4              
1 43767U 18099K   26177.11944909  .00004891  00000+0  28395-3 0  9995
2 43767  97.4065 219.8380 0007297 341.6016  18.4950 15.12561796413757
M2 PATHFINDER           
1 45727U 20037E   26177.09093858  .00002981  00000+0  21596-3 0  9997
2 45727  97.8135   8.4223 0012561 120.6544 239.5922 15.04706244326833
NETSAT-4                
1 46504U 20068U   26177.19804052  .00019512  00000+0  42747-3 0  9991
2 46504  97.8601 186.1637 0003168 289.3785  70.7119 15.44149820317165
NETSAT-3                
1 46505U 20068V   26177.27604884  .00020517  00000+0  46733-3 0  9998
2 46505  97.8652 184.4532 0003131 318.1999  41.9007 15.42978668317080
NETSAT-1                
1 46506U 20068W   26177.26336497  .00013502  00000+0  40195-3 0  9992
2 46506  97.8742 178.6632 0003902   2.5836 357.5425 15.34840028316692
NETSAT-2                
1 46507U 20068X   26177.29013580  .00023969  00000+0  48622-3 0  9992
2 46507  97.8614 186.1915 0002021 352.1043   8.0173 15.46374580317141
GREENCUBE (IO-117)      
1 53109U 22080E   26176.74430124 -.00000003  00000+0  00000+0 0  9999
2 53109  70.1444 295.2691 0008975 287.7502  72.2178  6.42583224 92615
SITRO-AIS 5 (KATYS)     
1 57176U 23091L   26177.22891953  .00013441  00000+0  46910-3 0  9998
2 57176  97.5063 241.2146 0012472  75.3367 284.9255 15.29653864165720
SITRO-AIS 6 (CHIRKIN)   
1 57192U 23091AC  26177.22881048  .00011162  00000+0  43444-3 0  9997
2 57192  97.5071 240.2855 0012895  78.5844 281.6842 15.26099042165665
SITRO-AIS 8 (ANOKHIN)   
1 57193U 23091AD  26177.23004539  .00016028  00000+0  51388-3 0  9993
2 57193  97.5059 242.8414 0011401  71.8810 288.3672 15.32368131165831
SITRO-AIS 7 (FARTUSHNIY)
1 57194U 23091AE  26177.23381693  .00011130  00000+0  43736-3 0  9990
2 57194  97.5069 240.1109 0012763  79.5637 280.7039 15.25783527165654
SITRO-AIS 10 (BURDAEV)  
1 57199U 23091AK  26177.22330610  .00022086  00000+0  57395-3 0  9995
2 57199  97.5084 247.9827 0006755  52.3295 307.8562 15.38939421166159
SITRO-AIS 9 (SHCHUKIN)  
1 57201U 23091AM  26177.18757247  .00021108  00000+0  55768-3 0  9999
2 57201  97.5083 247.6690 0007065  52.5123 307.6763 15.38437236166130
SITRO-AIS 12 (SMIRENNIY)
1 57204U 23091AQ  26177.24150893  .00021300  00000+0  55740-3 0  9997
2 57204  97.5095 248.1970 0006544  47.1411 313.0383 15.38733004166168
SITRO-AIS 11 (SHEFFER)  
1 57208U 23091AU  26177.25240961  .00020850  00000+0  53813-3 0  9996
2 57208  97.5093 248.4606 0006422  46.7784 313.3996 15.39162921166182
SITRO-AIS 25            
1 59066U 24039R   26177.28691594  .00002337  00000+0  18440-3 0  9995
2 59066  95.3909 241.3457 0142611 296.5845  62.0825 14.93554539126081
SITRO-AIS 26            
1 59067U 24039S   26177.28953354  .00002260  00000+0  17923-3 0  9991
2 59067  95.3909 241.2432 0142967 297.1741  61.4970 14.93348797126070
SITRO-AIS 27            
1 59068U 24039T   26177.25723008  .00003249  00000+0  25420-3 0  9999
2 59068  95.3912 241.4968 0141915 295.8502  62.8145 14.93770260126098
SITRO-AIS 28            
1 59071U 24039U   26177.30145109  .00002716  00000+0  21276-3 0  9992
2 59071  95.3910 241.5751 0141910 295.5214  63.1393 14.93802490126105
GRBBETA                 
1 60237U 24128C   26177.24598915  .00003403  00000+0  23859-3 0  9990
2 60237  61.9878 184.4815 0039482 136.5630 223.8585 15.06688945107632
OOV-CUBE (TUBSAT-30)    
1 60240U 24128F   26177.23776850  .00001664  00000+0  13704-3 0  9994
2 60240  61.9924 194.0128 0043504 135.7884 224.6697 15.02803677107476
ROBUSTA-3A (MEDITERRAN*)
1 60243U 24128J   26177.13064637  .00005543  00000+0  33022-3 0  9994
2 60243  61.9844 176.6146 0040160 130.0014 230.4618 15.11752310107772
LASARSAT                
1 62391U 24247Q   26177.27700145  .00031954  00000+0  62540-3 0  9990
2 62391  44.9729 211.1163 0007200  26.2306 333.8948 15.46877465 84723
CROCUBE                 
1 62394U 24247T   26175.39308509  .00030725  00000+0  56517-3 0  9994
2 62394  44.9701 218.9251 0007226  18.8099 341.3058 15.48681185 84464
FORESAIL-1 PRIME        
1 66778U 25276DS  26177.02298748  .00005552  00000+0  27024-3 0  9993
2 66778  97.4201 250.1321 0003943  85.4112 274.7572 15.18776013 31741
KNACKSAT-2              
1 67683U 98067XZ  26176.42038817  .00054321  00000+0  64307-3 0  9992
2 67683  51.6277 253.0425 0008709 252.4154 107.5888 15.60671397 21564
